STARLINK-35714          
1 66214U 25244J   25316.25003472 -.01921918  00000+0 -19186-1 0  9994
2 66214  53.1596  60.5394 0001185  64.7985  47.3119 15.68034187  3316
STARLINK-35712          
1 66215U 25244K   25316.25003472 -.01921559  00000+0 -19183-1 0  9993
2 66215  53.1597  60.5316 0001212  70.7040  45.2422 15.68033373  3312
STARLINK-35709          
1 66216U 25244L   25316.25003472 -.01917912  00000+0 -19142-1 0  9997
2 66216  53.1598  60.5518 0001195  71.6077  34.7521 15.68032873  3315
STARLINK-35700          
1 66217U 25244M   25316.25003472 -.01869919  00000+0 -18642-1 0  9995
2 66217  53.1601  60.5476 0001186  63.5765  44.7421 15.67981846  3310
STARLINK-35722          
1 66218U 25244N   25316.25003472 -.01924772  00000+0 -19216-1 0  9993
2 66218  53.1598  60.5438 0001243  67.3369  42.8548 15.68037202  3318
STARLINK-35737          
1 66219U 25244P   25316.25003472 -.01922375  00000+0 -19191-1 0  9993
2 66219  53.1598  60.5360 0001264  68.2181  45.8098 15.68034352  3471
STARLINK-35677          
1 66220U 25244Q   25316.25003472 -.01921040  00000+0 -19177-1 0  9997
2 66220  53.1599  60.5281 0001156  66.2371  51.6245 15.68033705  3318
STARLINK-35704          
1 66221U 25244R   25316.25003472 -.01923338  00000+0 -19201-1 0  9998
2 66221  53.1598  60.5236 0001286  70.3474  49.4302 15.68035471  3313
STARLINK-35666          
1 66222U 25244S   25316.25003472 -.01928004  00000+0 -19248-1 0  9995
2 66222  53.1599  60.5159 0001348  71.6539  51.9513 15.68041421  3420
STARLINK-35664          
1 66223U 25244T   25316.25003472 -.01921704  00000+0 -19184-1 0  9995
2 66223  53.1598  60.5204 0001240  68.2793  53.4153 15.68034317  3429
STARLINK-35733          
1 66224U 25244U   25316.25003472 -.01926175  00000+0 -19232-1 0  9997
2 66224  53.1597  60.5082 0001216  66.2169  61.2278 15.68036842  3319
STARLINK-35734          
1 66225U 25244V   25316.25003472 -.01922411  00000+0 -19191-1 0  9991
2 66225  53.1597  60.5111 0001204  65.3914  60.1361 15.68035075  3316
