CCSDS_OMM_VERS = 2.0
CREATION_DATE  = 
ORIGINATOR     = 

OBJECT_NAME    = STARLINK-35714
OBJECT_ID      = 2025-244J
CENTER_NAME    = EARTH
REF_FRAME      = TEME
TIME_SYSTEM    = UTC
MEAN_ELEMENT_THEORY = SGP/SGP4

EPOCH          = 2025-11-12T06:00:02.999808
MEAN_MOTION    = 15.68034187
ECCENTRICITY   = .00011856
INCLINATION    = 53.1596
RA_OF_ASC_NODE = 60.5394
ARG_OF_PERICENTER = 64.7985
MEAN_ANOMALY   = 47.3119

EPHEMERIS_TYPE = 0
CLASSIFICATION_TYPE = U
NORAD_CAT_ID   = 66214
ELEMENT_SET_NO = 999
REV_AT_EPOCH   = 331
BSTAR          = -.19186491E-1
MEAN_MOTION_DOT = -.1921918E-1
MEAN_MOTION_DDOT = 0

CCSDS_OMM_VERS = 2.0
CREATION_DATE  = 
ORIGINATOR     = 

OBJECT_NAME    = STARLINK-35712
OBJECT_ID      = 2025-244K
CENTER_NAME    = EARTH
REF_FRAME      = TEME
TIME_SYSTEM    = UTC
MEAN_ELEMENT_THEORY = SGP/SGP4

EPOCH          = 2025-11-12T06:00:02.999808
MEAN_MOTION    = 15.68033373
ECCENTRICITY   = .00012121
INCLINATION    = 53.1597
RA_OF_ASC_NODE = 60.5316
ARG_OF_PERICENTER = 70.7040
MEAN_ANOMALY   = 45.2422

EPHEMERIS_TYPE = 0
CLASSIFICATION_TYPE = U
NORAD_CAT_ID   = 66215
ELEMENT_SET_NO = 999
REV_AT_EPOCH   = 331
BSTAR          = -.1918288E-1
MEAN_MOTION_DOT = -.1921559E-1
MEAN_MOTION_DDOT = 0

CCSDS_OMM_VERS = 2.0
CREATION_DATE  = 
ORIGINATOR     = 

OBJECT_NAME    = STARLINK-35709
OBJECT_ID      = 2025-244L
CENTER_NAME    = EARTH
REF_FRAME      = TEME
TIME_SYSTEM    = UTC
MEAN_ELEMENT_THEORY = SGP/SGP4

EPOCH          = 2025-11-12T06:00:02.999808
MEAN_MOTION    = 15.68032873
ECCENTRICITY   = .00011955
INCLINATION    = 53.1598
RA_OF_ASC_NODE = 60.5518
ARG_OF_PERICENTER = 71.6077
MEAN_ANOMALY   = 34.7521

EPHEMERIS_TYPE = 0
CLASSIFICATION_TYPE = U
NORAD_CAT_ID   = 66216
ELEMENT_SET_NO = 999
REV_AT_EPOCH   = 331
BSTAR          = -.19142287E-1
MEAN_MOTION_DOT = -.1917912E-1
MEAN_MOTION_DDOT = 0

CCSDS_OMM_VERS = 2.0
CREATION_DATE  = 
ORIGINATOR     = 

OBJECT_NAME    = STARLINK-35700
OBJECT_ID      = 2025-244M
CENTER_NAME    = EARTH
REF_FRAME      = TEME
TIME_SYSTEM    = UTC
MEAN_ELEMENT_THEORY = SGP/SGP4

EPOCH          = 2025-11-12T06:00:02.999808
MEAN_MOTION    = 15.67981846
ECCENTRICITY   = .0001186
INCLINATION    = 53.1601
RA_OF_ASC_NODE = 60.5476
ARG_OF_PERICENTER = 63.5765
MEAN_ANOMALY   = 44.7421

EPHEMERIS_TYPE = 0
CLASSIFICATION_TYPE = U
NORAD_CAT_ID   = 66217
ELEMENT_SET_NO = 999
REV_AT_EPOCH   = 331
BSTAR          = -.18642458E-1
MEAN_MOTION_DOT = -.1869919E-1
MEAN_MOTION_DDOT = 0

CCSDS_OMM_VERS = 2.0
CREATION_DATE  = 
ORIGINATOR     = 

OBJECT_NAME    = STARLINK-35722
OBJECT_ID      = 2025-244N
CENTER_NAME    = EARTH
REF_FRAME      = TEME
TIME_SYSTEM    = UTC
MEAN_ELEMENT_THEORY = SGP/SGP4

EPOCH          = 2025-11-12T06:00:02.999808
MEAN_MOTION    = 15.68037202
ECCENTRICITY   = .00012432
INCLINATION    = 53.1598
RA_OF_ASC_NODE = 60.5438
ARG_OF_PERICENTER = 67.3369
MEAN_ANOMALY   = 42.8548

EPHEMERIS_TYPE = 0
CLASSIFICATION_TYPE = U
NORAD_CAT_ID   = 66218
ELEMENT_SET_NO = 999
REV_AT_EPOCH   = 331
BSTAR          = -.19215825E-1
MEAN_MOTION_DOT = -.1924772E-1
MEAN_MOTION_DDOT = 0

CCSDS_OMM_VERS = 2.0
CREATION_DATE  = 
ORIGINATOR     = 

OBJECT_NAME    = STARLINK-35737
OBJECT_ID      = 2025-244P
CENTER_NAME    = EARTH
REF_FRAME      = TEME
TIME_SYSTEM    = UTC
MEAN_ELEMENT_THEORY = SGP/SGP4

EPOCH          = 2025-11-12T06:00:02.999808
MEAN_MOTION    = 15.68034352
ECCENTRICITY   = .00012647
INCLINATION    = 53.1598
RA_OF_ASC_NODE = 60.5360
ARG_OF_PERICENTER = 68.2181
MEAN_ANOMALY   = 45.8098

EPHEMERIS_TYPE = 0
CLASSIFICATION_TYPE = U
NORAD_CAT_ID   = 66219
ELEMENT_SET_NO = 999
REV_AT_EPOCH   = 347
BSTAR          = -.19190881E-1
MEAN_MOTION_DOT = -.1922375E-1
MEAN_MOTION_DDOT = 0

CCSDS_OMM_VERS = 2.0
CREATION_DATE  = 
ORIGINATOR     = 

OBJECT_NAME    = STARLINK-35677
OBJECT_ID      = 2025-244Q
CENTER_NAME    = EARTH
REF_FRAME      = TEME
TIME_SYSTEM    = UTC
MEAN_ELEMENT_THEORY = SGP/SGP4

EPOCH          = 2025-11-12T06:00:02.999808
MEAN_MOTION    = 15.68033705
ECCENTRICITY   = .00011563
INCLINATION    = 53.1599
RA_OF_ASC_NODE = 60.5281
ARG_OF_PERICENTER = 66.2371
MEAN_ANOMALY   = 51.6245

EPHEMERIS_TYPE = 0
CLASSIFICATION_TYPE = U
NORAD_CAT_ID   = 66220
ELEMENT_SET_NO = 999
REV_AT_EPOCH   = 331
BSTAR          = -.19177211E-1
MEAN_MOTION_DOT = -.192104E-1
MEAN_MOTION_DDOT = 0

CCSDS_OMM_VERS = 2.0
CREATION_DATE  = 
ORIGINATOR     = 

OBJECT_NAME    = STARLINK-35704
OBJECT_ID      = 2025-244R
CENTER_NAME    = EARTH
REF_FRAME      = TEME
TIME_SYSTEM    = UTC
MEAN_ELEMENT_THEORY = SGP/SGP4

EPOCH          = 2025-11-12T06:00:02.999808
MEAN_MOTION    = 15.68035471
ECCENTRICITY   = .0001286
INCLINATION    = 53.1598
RA_OF_ASC_NODE = 60.5236
ARG_OF_PERICENTER = 70.3474
MEAN_ANOMALY   = 49.4302

EPHEMERIS_TYPE = 0
CLASSIFICATION_TYPE = U
NORAD_CAT_ID   = 66221
ELEMENT_SET_NO = 999
REV_AT_EPOCH   = 331
BSTAR          = -.19200684E-1
MEAN_MOTION_DOT = -.1923338E-1
MEAN_MOTION_DDOT = 0

CCSDS_OMM_VERS = 2.0
CREATION_DATE  = 
ORIGINATOR     = 

OBJECT_NAME    = STARLINK-35666
OBJECT_ID      = 2025-244S
CENTER_NAME    = EARTH
REF_FRAME      = TEME
TIME_SYSTEM    = UTC
MEAN_ELEMENT_THEORY = SGP/SGP4

EPOCH          = 2025-11-12T06:00:02.999808
MEAN_MOTION    = 15.68041421
ECCENTRICITY   = .00013481
INCLINATION    = 53.1599
RA_OF_ASC_NODE = 60.5159
ARG_OF_PERICENTER = 71.6539
MEAN_ANOMALY   = 51.9513

EPHEMERIS_TYPE = 0
CLASSIFICATION_TYPE = U
NORAD_CAT_ID   = 66222
ELEMENT_SET_NO = 999
REV_AT_EPOCH   = 342
BSTAR          = -.19248084E-1
MEAN_MOTION_DOT = -.1928004E-1
MEAN_MOTION_DDOT = 0

CCSDS_OMM_VERS = 2.0
CREATION_DATE  = 
ORIGINATOR     = 

OBJECT_NAME    = STARLINK-35664
OBJECT_ID      = 2025-244T
CENTER_NAME    = EARTH
REF_FRAME      = TEME
TIME_SYSTEM    = UTC
MEAN_ELEMENT_THEORY = SGP/SGP4

EPOCH          = 2025-11-12T06:00:02.999808
MEAN_MOTION    = 15.68034317
ECCENTRICITY   = .00012406
INCLINATION    = 53.1598
RA_OF_ASC_NODE = 60.5204
ARG_OF_PERICENTER = 68.2793
MEAN_ANOMALY   = 53.4153

EPHEMERIS_TYPE = 0
CLASSIFICATION_TYPE = U
NORAD_CAT_ID   = 66223
ELEMENT_SET_NO = 999
REV_AT_EPOCH   = 342
BSTAR          = -.1918353E-1
MEAN_MOTION_DOT = -.1921704E-1
MEAN_MOTION_DDOT = 0

CCSDS_OMM_VERS = 2.0
CREATION_DATE  = 
ORIGINATOR     = 

OBJECT_NAME    = STARLINK-35733
OBJECT_ID      = 2025-244U
CENTER_NAME    = EARTH
REF_FRAME      = TEME
TIME_SYSTEM    = UTC
MEAN_ELEMENT_THEORY = SGP/SGP4

EPOCH          = 2025-11-12T06:00:02.999808
MEAN_MOTION    = 15.68036842
ECCENTRICITY   = .00012166
INCLINATION    = 53.1597
RA_OF_ASC_NODE = 60.5082
ARG_OF_PERICENTER = 66.2169
MEAN_ANOMALY   = 61.2278

EPHEMERIS_TYPE = 0
CLASSIFICATION_TYPE = U
NORAD_CAT_ID   = 66224
ELEMENT_SET_NO = 999
REV_AT_EPOCH   = 331
BSTAR          = -.19232165E-1
MEAN_MOTION_DOT = -.1926175E-1
MEAN_MOTION_DDOT = 0

CCSDS_OMM_VERS = 2.0
CREATION_DATE  = 
ORIGINATOR     = 

OBJECT_NAME    = STARLINK-35734
OBJECT_ID      = 2025-244V
CENTER_NAME    = EARTH
REF_FRAME      = TEME
TIME_SYSTEM    = UTC
MEAN_ELEMENT_THEORY = SGP/SGP4

EPOCH          = 2025-11-12T06:00:02.999808
MEAN_MOTION    = 15.68035075
ECCENTRICITY   = .00012043
INCLINATION    = 53.1597
RA_OF_ASC_NODE = 60.5111
ARG_OF_PERICENTER = 65.3914
MEAN_ANOMALY   = 60.1361

EPHEMERIS_TYPE = 0
CLASSIFICATION_TYPE = U
NORAD_CAT_ID   = 66225
ELEMENT_SET_NO = 999
REV_AT_EPOCH   = 331
BSTAR          = -.19191195E-1
MEAN_MOTION_DOT = -.1922411E-1
MEAN_MOTION_DDOT = 0

